start=new Date('2022-02-02T00:00:00.000Z').valueOf();
sats=[{"NORAD_CAT_ID":"45742","EPOCH":"2022-02-01T16:53:45.911040","INCLINATION":"53.0537","LAUNCH_DATE":"2020-06-13","TLE_LINE1":"1 45742U 20038N   22032.70400360  .00006014  00000-0  42221-3 0  9999","BSTAR":"0.00042221000000","REV_AT_EPOCH":"9055","RCS_SIZE":"LARGE","MEAN_MOTION":"15.06407312","APOAPSIS":"548.221","TIME_SYSTEM":"UTC","ELEMENT_SET_NO":"999","CENTER_NAME":"EARTH","GP_ID":"195121486","RA_OF_ASC_NODE":"116.8441","OBJECT_ID":"2020-038N","TLE_LINE2":"2 45742  53.0537 116.8441 0001487  75.1441 284.9713 15.06407312 90556","DECAY_DATE":null,"COUNTRY_CODE":"US","FILE":"3289675","MEAN_MOTION_DDOT":"0.0000000000000","PERIOD":"95.592","ARG_OF_PERICENTER":"75.1441","MEAN_MOTION_DOT":"0.00006014","MEAN_ELEMENT_THEORY":"SGP4","OBJECT_TYPE":"PAYLOAD","ECCENTRICITY":"0.00014870","EPHEMERIS_TYPE":"0","CLASSIFICATION_TYPE":"U","PERIAPSIS":"546.161","SITE":"AFETR","REF_FRAME":"TEME","OBJECT_NAME":"STARLINK-1481","MEAN_ANOMALY":"284.9713","SEMIMAJOR_AXIS":"6925.326"},{"INCLINATION":"53.0550","EPOCH":"2022-02-01T15:44:46.550976","NORAD_CAT_ID":"45743","TLE_LINE1":"1 45743U 20038P   22032.65609434 -.00000463  00000-0 -12151-4 0  9991","LAUNCH_DATE":"2020-06-13","REV_AT_EPOCH":"9055","BSTAR":"-0.00001215100000","CENTER_NAME":"EARTH","GP_ID":"195120742","RA_OF_ASC_NODE":"116.9130","ELEMENT_SET_NO":"999","TIME_SYSTEM":"UTC","APOAPSIS":"548.362","MEAN_MOTION":"15.06399103","RCS_SIZE":"LARGE","PERIOD":"95.592","ARG_OF_PERICENTER":"52.6480","MEAN_MOTION_DDOT":"0.0000000000000","MEAN_MOTION_DOT":"-0.00000463","FILE":"3289675","COUNTRY_CODE":"US","DECAY_DATE":null,"TLE_LINE2":"2 45743  53.0550 116.9130 0001655  52.6480 307.4660 15.06399103 90558","OBJECT_ID":"2020-038P","EPHEMERIS_TYPE":"0","CLASSIFICATION_TYPE":"U","OBJECT_TYPE":"PAYLOAD","ECCENTRICITY":"0.00016550","MEAN_ELEMENT_THEORY":"SGP4","SITE":"AFETR","PERIAPSIS":"546.070","SEMIMAJOR_AXIS":"6925.351","MEAN_ANOMALY":"307.4660","OBJECT_NAME":"STARLINK-1483","REF_FRAME":"TEME"},{"NORAD_CAT_ID":"45744","EPOCH":"2022-02-01T16:37:50.880864","INCLINATION":"53.0520","LAUNCH_DATE":"2020-06-13","TLE_LINE1":"1 45744U 20038Q   22032.69295001  .00007701  00000-0  53527-3 0  9998","BSTAR":"0.00053527000000","REV_AT_EPOCH":"9056","MEAN_MOTION":"15.06405555","RCS_SIZE":"LARGE","TIME_SYSTEM":"UTC","APOAPSIS":"548.246","ELEMENT_SET_NO":"999","CENTER_NAME":"EARTH","GP_ID":"195120992","RA_OF_ASC_NODE":"116.8994","OBJECT_ID":"2020-038Q","DECAY_DATE":null,"TLE_LINE2":"2 45744  53.0520 116.8994 0001515  70.0345 290.0807 15.06405555 90562","FILE":"3289675","COUNTRY_CODE":"US","PERIOD":"95.592","ARG_OF_PERICENTER":"70.0345","MEAN_MOTION_DDOT":"0.0000000000000","MEAN_MOTION_DOT":"0.00007701","MEAN_ELEMENT_THEORY":"SGP4","OBJECT_TYPE":"PAYLOAD","ECCENTRICITY":"0.00015150","CLASSIFICATION_TYPE":"U","EPHEMERIS_TYPE":"0","PERIAPSIS":"546.147","SITE":"AFETR","REF_FRAME":"TEME","OBJECT_NAME":"STARLINK-1500","MEAN_ANOMALY":"290.0807","SEMIMAJOR_AXIS":"6925.332"},{"PERIAPSIS":"546.260","SITE":"AFETR","REF_FRAME":"TEME","OBJECT_NAME":"STARLINK-1503","MEAN_ANOMALY":"294.2939","SEMIMAJOR_AXIS":"6925.338","OBJECT_ID":"2020-038R","TLE_LINE2":"2 45745  53.0546 116.6598 0001361  65.8193 294.2939 15.06403545 90560","DECAY_DATE":null,"COUNTRY_CODE":"US","FILE":"3289675","MEAN_MOTION_DDOT":"0.0000000000000","PERIOD":"95.592","MEAN_MOTION_DOT":"0.00002437","ARG_OF_PERICENTER":"65.8193","MEAN_ELEMENT_THEORY":"SGP4","OBJECT_TYPE":"PAYLOAD","ECCENTRICITY":"0.00013610","EPHEMERIS_TYPE":"0","CLASSIFICATION_TYPE":"U","BSTAR":"0.00018245000000","REV_AT_EPOCH":"9056","MEAN_MOTION":"15.06403545","RCS_SIZE":"LARGE","TIME_SYSTEM":"UTC","APOAPSIS":"548.145","ELEMENT_SET_NO":"999","GP_ID":"195121244","CENTER_NAME":"EARTH","RA_OF_ASC_NODE":"116.6598","NORAD_CAT_ID":"45745","EPOCH":"2022-02-01T17:57:27.847008","INCLINATION":"53.0546","LAUNCH_DATE":"2020-06-13","TLE_LINE1":"1 45745U 20038R   22032.74823897  .00002437  00000-0  18245-3 0  9994"},{"EPHEMERIS_TYPE":"0","CLASSIFICATION_TYPE":"U","OBJECT_TYPE":"PAYLOAD","ECCENTRICITY":"0.00017500","MEAN_ELEMENT_THEORY":"SGP4","MEAN_MOTION_DOT":"0.00012582","PERIOD":"95.591","MEAN_MOTION_DDOT":"0.0000000000000","ARG_OF_PERICENTER":"64.1550","COUNTRY_CODE":"US","FILE":"3289675","TLE_LINE2":"2 45746  53.0526 116.8757 0001750  64.1550 295.9620 15.06413178 90556","DECAY_DATE":null,"OBJECT_ID":"2020-038S","SEMIMAJOR_AXIS":"6925.308","MEAN_ANOMALY":"295.9620","OBJECT_NAME":"STARLINK-1504","REF_FRAME":"TEME","SITE":"AFETR","PERIAPSIS":"545.961","TLE_LINE1":"1 45746U 20038S   22032.69663137  .00012582  00000-0  86178-3 0  9990","LAUNCH_DATE":"2020-06-13","INCLINATION":"53.0526","EPOCH":"2022-02-01T16:43:08.950368","NORAD_CAT_ID":"45746","GP_ID":"195121986","CENTER_NAME":"EARTH","RA_OF_ASC_NODE":"116.8757","ELEMENT_SET_NO":"999","TIME_SYSTEM":"UTC","APOAPSIS":"548.385","RCS_SIZE":"LARGE","MEAN_MOTION":"15.06413178","REV_AT_EPOCH":"9055","BSTAR":"0.00086178000000"},{"SITE":"AFETR","PERIAPSIS":"546.192","OBJECT_NAME":"STARLINK-1506","REF_FRAME":"TEME","SEMIMAJOR_AXIS":"6925.336","MEAN_ANOMALY":"296.7024","DECAY_DATE":null,"TLE_LINE2":"2 45747  53.0546 117.4611 0001458  63.4115 296.7024 15.06403952 90544","OBJECT_ID":"2020-038T","PERIOD":"95.592","MEAN_MOTION_DDOT":"0.0000000000000","ARG_OF_PERICENTER":"63.4115","MEAN_MOTION_DOT":"0.00000183","FILE":"3289675","COUNTRY_CODE":"US","MEAN_ELEMENT_THEORY":"SGP4","CLASSIFICATION_TYPE":"U","EPHEMERIS_TYPE":"0","OBJECT_TYPE":"PAYLOAD","ECCENTRICITY":"0.00014580","REV_AT_EPOCH":"9054","BSTAR":"0.00003120500000","TIME_SYSTEM":"UTC","APOAPSIS":"548.211","RCS_SIZE":"LARGE","MEAN_MOTION":"15.06403952","GP_ID":"195120243","RA_OF_ASC_NODE":"117.4611","CENTER_NAME":"EARTH","ELEMENT_SET_NO":"999","EPOCH":"2022-02-01T13:37:22.613376","NORAD_CAT_ID":"45747","INCLINATION":"53.0546","TLE_LINE1":"1 45747U 20038T   22032.56762284  .00000183  00000-0  31205-4 0  9996","LAUNCH_DATE":"2020-06-13"},{"SITE":"AFETR","PERIAPSIS":"546.277","OBJECT_NAME":"STARLINK-1507","REF_FRAME":"TEME","SEMIMAJOR_AXIS":"6925.379","MEAN_ANOMALY":"288.9048","TLE_LINE2":"2 45748  53.0511 117.2331 0001397  71.2093 288.9048 15.06389935 90541","DECAY_DATE":null,"OBJECT_ID":"2020-038U","PERIOD":"95.593","ARG_OF_PERICENTER":"71.2093","MEAN_MOTION_DDOT":"0.0000000000000","MEAN_MOTION_DOT":"0.00000160","COUNTRY_CODE":"US","FILE":"3289675","MEAN_ELEMENT_THEORY":"SGP4","CLASSIFICATION_TYPE":"U","EPHEMERIS_TYPE":"0","ECCENTRICITY":"0.00013970","OBJECT_TYPE":"PAYLOAD","REV_AT_EPOCH":"9054","BSTAR":"0.00002967400000","APOAPSIS":"548.212","TIME_SYSTEM":"UTC","RCS_SIZE":"LARGE","MEAN_MOTION":"15.06389935","GP_ID":"195120493","RA_OF_ASC_NODE":"117.2331","CENTER_NAME":"EARTH","ELEMENT_SET_NO":"999","EPOCH":"2022-02-01T14:55:38.668512","NORAD_CAT_ID":"45748","INCLINATION":"53.0511","TLE_LINE1":"1 45748U 20038U   22032.62197533  .00000160  00000-0  29674-4 0  9995","LAUNCH_DATE":"2020-06-13"},{"PERIAPSIS":"546.187","SITE":"AFETR","REF_FRAME":"TEME","OBJECT_NAME":"STARLINK-1391","MEAN_ANOMALY":"289.6240","SEMIMAJOR_AXIS":"6925.360","OBJECT_ID":"2020-038W","DECAY_DATE":null,"TLE_LINE2":"2 45750  53.0542  97.3931 0001500  70.4911 289.6240 15.06396111 90836","FILE":"3289399","COUNTRY_CODE":"US","MEAN_MOTION_DDOT":"0.0000000000000","PERIOD":"95.592","ARG_OF_PERICENTER":"70.4911","MEAN_MOTION_DOT":"-0.00000134","MEAN_ELEMENT_THEORY":"SGP4","OBJECT_TYPE":"PAYLOAD","ECCENTRICITY":"0.00015000","CLASSIFICATION_TYPE":"U","EPHEMERIS_TYPE":"0","BSTAR":"0.00000993520000","REV_AT_EPOCH":"9083","MEAN_MOTION":"15.06396111","RCS_SIZE":"LARGE","APOAPSIS":"548.264","TIME_SYSTEM":"UTC","ELEMENT_SET_NO":"999","CENTER_NAME":"EARTH","GP_ID":"195089881","RA_OF_ASC_NODE":"97.3931","NORAD_CAT_ID":"45750","EPOCH":"2022-02-01T14:01:15.888288","INCLINATION":"53.0542","LAUNCH_DATE":"2020-06-13","TLE_LINE1":"1 45750U 20038W   22032.58421167 -.00000134  00000-0  99352-5 0  9999"},{"LAUNCH_DATE":"2020-06-13","TLE_LINE1":"1 45751U 20038X   22032.58053464 -.00000238  00000-0  29420-5 0  9995","NORAD_CAT_ID":"45751","EPOCH":"2022-02-01T13:55:58.192896","INCLINATION":"53.0554","MEAN_MOTION":"15.06400882","RCS_SIZE":"LARGE","TIME_SYSTEM":"UTC","APOAPSIS":"548.234","ELEMENT_SET_NO":"999","CENTER_NAME":"EARTH","GP_ID":"195089159","RA_OF_ASC_NODE":"97.3987","BSTAR":"0.00000294200000","REV_AT_EPOCH":"9083","MEAN_ELEMENT_THEORY":"SGP4","OBJECT_TYPE":"PAYLOAD","ECCENTRICITY":"0.00014780","CLASSIFICATION_TYPE":"U","EPHEMERIS_TYPE":"0","OBJECT_ID":"2020-038X","DECAY_DATE":null,"TLE_LINE2":"2 45751  53.0554  97.3987 0001478  61.1625 298.9513 15.06400882 90831","FILE":"3289399","COUNTRY_CODE":"US","MEAN_MOTION_DDOT":"0.0000000000000","PERIOD":"95.592","MEAN_MOTION_DOT":"-0.00000238","ARG_OF_PERICENTER":"61.1625","REF_FRAME":"TEME","OBJECT_NAME":"STARLINK-1464","MEAN_ANOMALY":"298.9513","SEMIMAJOR_AXIS":"6925.346","PERIAPSIS":"546.187","SITE":"AFETR"},{"MEAN_ELEMENT_THEORY":"SGP4","CLASSIFICATION_TYPE":"U","EPHEMERIS_TYPE":"0","ECCENTRICITY":"0.00063210","OBJECT_TYPE":"PAYLOAD","DECAY_DATE":null,"TLE_LINE2":"2 45752  53.0020 214.2546 0006321 301.1579  58.8820 15.79870965 94200","OBJECT_ID":"2020-038Y","ARG_OF_PERICENTER":"301.1579","PERIOD":"91.147","MEAN_MOTION_DDOT":"0.0000000000000","MEAN_MOTION_DOT":"0.00109297","FILE":"3289675","COUNTRY_CODE":"US","OBJECT_NAME":"STARLINK-1469","REF_FRAME":"TEME","SEMIMAJOR_AXIS":"6708.943","MEAN_ANOMALY":"58.8820","SITE":"AFETR","PERIAPSIS":"326.567","TLE_LINE1":"1 45752U 20038Y   22032.62512451  .00109297  00000-0  57538-3 0  9990","LAUNCH_DATE":"2020-06-13","EPOCH":"2022-02-01T15:00:10.757664","NORAD_CAT_ID":"45752","INCLINATION":"53.0020","TIME_SYSTEM":"UTC","APOAPSIS":"335.049","RCS_SIZE":"LARGE","MEAN_MOTION":"15.79870965","RA_OF_ASC_NODE":"214.2546","GP_ID":"195120743","CENTER_NAME":"EARTH","ELEMENT_SET_NO":"999","REV_AT_EPOCH":"9420","BSTAR":"0.00057538000000"}];
